NORAD_CAT_ID,OBJECT_NAME,OBJECT_TYPE,EPOCH,MEAN_MOTION,ECCENTRICITY,INCLINATION,RA_OF_ASC_NODE,ARG_OF_PERICENTER,MEAN_ANOMALY,BSTAR,MEAN_MOTION_DOT,MEAN_MOTION_DDOT,TLE_LINE0,TLE_LINE1,TLE_LINE2,SEMIMAJOR_AXIS,PERIOD,APOGEE,PERIGEE,DECAYED
53856.0,STARLINK-4795,PAYLOAD,2024-08-04 11:00:13,15.08853503,0.0002002,53.2182,17.9352,95.7551,264.367,0.00070541,0.00010961,0.0,0 STARLINK-4795,1 53856U 22114AQ  24217.45848844  .00010961  00000-0  70541-3 0  9995,2 53856  53.2182  17.9352 0002002  95.7551 264.3670 15.08853503104677,6917.839,95.437,541.089,538.319,0.0
53856.0,STARLINK-4795,PAYLOAD,2024-08-04 14:10:59,15.08853971,0.0001651,53.2178,17.3407,103.3222,256.7954,0.0011604,0.00018235,0.0,0 STARLINK-4795,1 53856U 22114AQ  24217.59096711  .00018235  00000-0  11604-2 0  9994,2 53856  53.2178  17.3407 0001651 103.3222 256.7954 15.08853971105239,6917.838,95.437,540.845,538.561,0.0
53856.0,STARLINK-4795,PAYLOAD,2024-08-04 17:21:45,15.08856666,0.0001595,53.2181,16.7467,97.5774,262.5399,0.0016112,0.00025459,0.0,0 STARLINK-4795,1 53856U 22114AQ  24217.72344681  .00025459  00000-0  16112-2 0  9996,2 53856  53.2181  16.7467 0001595  97.5774 262.5399 15.08856666105259,6917.829,95.437,540.798,538.591,0.0
53856.0,STARLINK-4795,PAYLOAD,2024-08-05 17:12:34,15.08809378,0.0001313,53.2181,12.2844,79.2582,280.8558,-0.00015716,-2.786e-05,0.0,0 STARLINK-4795,1 53856U 22114AQ  24218.71706106 -.00002786  00000-0 -15716-3 0  9990,2 53856  53.2181  12.2844 0001313  79.2582 280.8558 15.08809378104865,6917.974,95.439,540.747,538.931,0.0
53856.0,STARLINK-4795,PAYLOAD,2024-08-05 21:58:43,15.08811238,0.0001361,53.2186,11.3929,80.8439,279.2707,0.00015743,2.217e-05,0.0,0 STARLINK-4795,1 53856U 22114AQ  24218.91578577  .00002217  00000-0  15743-3 0  9998,2 53856  53.2186  11.3929 0001361  80.8439 279.2707 15.08811238105436,6917.968,95.439,540.775,538.892,0.0
53856.0,STARLINK-4795,PAYLOAD,2024-08-06 02:44:53,15.08819031,0.0001307,53.2183,10.5023,82.1592,277.9549,0.00094943,0.00014846,0.0,0 STARLINK-4795,1 53856U 22114AQ  24219.11450942  .00014846  00000-0  94943-3 0  9996,2 53856  53.2183  10.5023 0001307  82.1592 277.9549 15.08819031104925,6917.944,95.439,540.714,538.905,0.0
53856.0,STARLINK-4795,PAYLOAD,2024-08-06 13:52:35,15.08854284,0.0001276,53.2182,8.4212,75.8013,284.3121,0.0020156,0.00031949,0.0,0 STARLINK-4795,1 53856U 22114AQ  24219.57819042  .00031949  00000-0  20156-2 0  9993,2 53856  53.2182   8.4212 0001276  75.8013 284.3121 15.08854284105537,6917.837,95.437,540.584,538.819,0.0
53856.0,STARLINK-4795,PAYLOAD,2024-08-06 17:03:21,15.08865351,0.0001282,53.218,7.8261,76.4722,283.6413,0.0021534,0.00034174,0.0,0 STARLINK-4795,1 53856U 22114AQ  24219.71066822  .00034174  00000-0  21534-2 0  9993,2 53856  53.2180   7.8261 0001282  76.4722 283.6413 15.08865351105019,6917.803,95.436,540.555,538.781,0.0
53856.0,STARLINK-4795,PAYLOAD,2024-08-07 15:18:44,15.08854516,0.000107,53.2178,3.6635,88.2715,271.84,0.00141,0.00022232,0.0,0 STARLINK-4795,1 53856U 22114AQ  24220.63801754  .00022232  00000-0  14100-2 0  9990,2 53856  53.2178   3.6635 0001070  88.2715 271.8400 15.08854516105154,6917.836,95.437,540.441,538.961,0.0
53856.0,STARLINK-4795,PAYLOAD,2024-08-08 13:34:08,15.08878393,0.0001424,53.2176,359.5014,116.4123,243.7015,0.0024261,0.00038576,0.0,0 STARLINK-4795,1 53856U 22114AQ  24221.56537503  .00038576  00000-0  24261-2 0  9998,2 53856  53.2176 359.5014 0001424 116.4123 243.7015 15.08878393105830,6917.763,95.435,540.613,538.643,0.0
53856.0,STARLINK-4795,PAYLOAD,2024-08-08 16:44:54,15.08852005,0.0001463,53.2172,358.9063,92.8642,267.2517,0.0019645,0.00031126,0.0,0 STARLINK-4795,1 53856U 22114AQ  24221.69785537  .00031126  00000-0  19645-2 0  9998,2 53856  53.2172 358.9063 0001463  92.8642 267.2517 15.08852005105312,6917.844,95.437,540.721,538.697,0.0
53856.0,STARLINK-4795,PAYLOAD,2024-08-09 08:38:45,15.08858181,0.0001518,53.2166,355.9309,122.2479,237.8661,0.0014334,0.0002261,0.0,0 STARLINK-4795,1 53856U 22114AQ  24222.36025454  .00022610  00000-0  14334-2 0  9996,2 53856  53.2166 355.9309 0001518 122.2479 237.8661 15.08858181105417,6917.825,95.436,540.74,538.64,0.0
53856.0,STARLINK-4795,PAYLOAD,2024-08-09 15:00:18,15.08848684,0.000148,53.2172,354.741,102.7816,257.3342,0.00094396,0.00014771,0.0,0 STARLINK-4795,1 53856U 22114AQ  24222.62521604  .00014771  00000-0  94396-3 0  9999,2 53856  53.2172 354.7410 0001480 102.7816 257.3342 15.08848684105993,6917.854,95.437,540.743,538.695,0.0
53856.0,STARLINK-4795,PAYLOAD,2024-08-09 18:11:04,15.08851163,0.0001442,53.2176,354.1462,103.4047,256.7106,0.0005815,8.982e-05,0.0,0 STARLINK-4795,1 53856U 22114AQ  24222.75769442  .00008982  00000-0  58150-3 0  9992,2 53856  53.2176 354.1462 0001442 103.4047 256.7106 15.08851163105470,6917.846,95.437,540.709,538.714,0.0
53856.0,STARLINK-4795,PAYLOAD,2024-08-10 13:15:42,15.08847462,0.0001682,53.2177,350.5743,84.6656,275.4528,0.00046921,7.189e-05,0.0,0 STARLINK-4795,1 53856U 22114AQ  24223.55257426  .00007189  00000-0  46921-3 0  9996,2 53856  53.2177 350.5743 0001682  84.6656 275.4528 15.08847462105591,6917.858,95.437,540.886,538.559,0.0
53856.0,STARLINK-4795,PAYLOAD,2024-08-10 14:51:05,15.08848347,0.0001494,53.2172,350.2802,102.5006,257.6153,0.0002865,4.276e-05,0.0,0 STARLINK-4795,1 53856U 22114AQ  24223.61881257  .00004276  00000-0  28650-3 0  9991,2 53856  53.2172 350.2802 0001494 102.5006 257.6153 15.08848347106140,6917.855,95.437,540.753,538.686,0.0
53856.0,STARLINK-4795,PAYLOAD,2024-08-10 18:01:51,15.08854427,0.0001517,53.2176,349.6844,106.8342,253.2817,0.00039519,6.01e-05,0.0,0 STARLINK-4795,1 53856U 22114AQ  24223.75129020  .00006010  00000-0  39519-3 0  9993,2 53856  53.2176 349.6844 0001517 106.8342 253.2817 15.08854427106165,6917.836,95.437,540.751,538.652,0.0
53856.0,STARLINK-4795,PAYLOAD,2024-08-11 08:20:20,15.08838303,0.0001095,53.2178,347.0089,97.1801,262.9315,3.4777e-06,-2.32e-06,0.0,0 STARLINK-4795,1 53856U 22114AQ  24224.34745509 -.00000232  00000-0  34777-5 0  9999,2 53856  53.2178 347.0089 0001095  97.1801 262.9315 15.08838303105718,6917.886,95.438,540.508,538.993,0.0
53856.0,STARLINK-4795,PAYLOAD,2024-08-11 14:41:52,15.08835764,9.01e-05,53.2179,345.8195,95.3014,264.8081,5.5539e-07,-2.79e-06,0.0,0 STARLINK-4795,1 53856U 22114AQ  24224.61241672 -.00000279  00000-0  55539-6 0  9992,2 53856  53.2179 345.8195 0000901  95.3014 264.8081 15.08835764106297,6917.893,95.438,540.382,539.135,0.0
53856.0,STARLINK-4795,PAYLOAD,2024-08-12 14:32:39,15.08858488,3.69e-05,53.2185,341.3575,102.9076,257.1957,0.00044763,6.847e-05,0.0,0 STARLINK-4795,1 53856U 22114AQ  24225.60601046  .00006847  00000-0  44763-3 0  9997,2 53856  53.2185 341.3575 0000369 102.9076 257.1957 15.08858488106440,6917.824,95.436,539.944,539.434,0.0
53856.0,STARLINK-4795,PAYLOAD,2024-08-12 19:18:47,15.08892439,9.75e-05,53.2184,340.47,97.2849,262.8254,0.0017663,0.00027975,0.0,0 STARLINK-4795,1 53856U 22114AQ  24225.80472122  .00027975  00000-0  17663-2 0  9993,2 53856  53.2184 340.4700 0000975  97.2849 262.8254 15.08892439105936,6917.72,95.434,540.26,538.911,0.0
53856.0,STARLINK-4795,PAYLOAD,2024-08-13 08:01:52,15.08870592,0.0001963,53.2159,338.0881,107.1893,252.9314,0.00049546,7.613e-05,0.0,0 STARLINK-4795,1 53856U 22114AQ  24226.33463823  .00007613  00000-0  49546-3 0  9993,2 53856  53.2159 338.0881 0001963 107.1893 252.9314 15.08870592106012,6917.787,95.436,541.01,538.294,0.0
53856.0,STARLINK-4795,PAYLOAD,2024-08-13 14:23:25,15.0883335,0.0001529,53.2161,336.8988,92.5104,267.6063,-0.00095043,-0.00015379,0.0,0 STARLINK-4795,1 53856U 22114AQ  24226.59960180 -.00015379  00000-0 -95043-3 0  9992,2 53856  53.2161 336.8988 0001529  92.5104 267.6063 15.08833350106597,6917.901,95.438,540.823,538.708,0.0
53856.0,STARLINK-4795,PAYLOAD,2024-08-13 17:34:11,15.08830947,4.09e-05,53.2231,336.3058,49.1709,310.9318,-0.00080234,-0.0001303,0.0,0 STARLINK-4795,1 53856U 22114AQ  24226.73208307 -.00013030  00000-0 -80234-3 0  9992,2 53856  53.2231 336.3058 0000409  49.1709 310.9318 15.08830947106070,6917.908,95.438,540.056,539.49,0.0
53856.0,STARLINK-4795,PAYLOAD,2024-08-14 06:17:18,15.08811763,9.06e-05,53.2158,333.9277,84.5729,275.5366,-4.4832e-05,-1e-05,0.0,0 STARLINK-4795,1 53856U 22114AQ  24227.26202104 -.00001000  00000-0 -44832-4 0  9999,2 53856  53.2158 333.9277 0000906  84.5729 275.5366 15.08811763106154,6917.967,95.439,540.458,539.205,0.0
53856.0,STARLINK-4795,PAYLOAD,2024-08-14 14:14:14,15.08827047,0.0001041,53.2159,332.4411,83.8167,276.2943,0.0015252,0.0002406,0.0,0 STARLINK-4795,1 53856U 22114AQ  24227.59322704  .00024060  00000-0  15252-2 0  9995,2 53856  53.2159 332.4411 0001041  83.8167 276.2943 15.08827047106744,6917.92,95.438,540.505,539.065,0.0
53856.0,STARLINK-4795,PAYLOAD,2024-08-14 23:46:33,15.08857129,0.0001121,53.2169,330.657,82.7577,277.3543,0.0017723,0.00028044,0.0,0 STARLINK-4795,1 53856U 22114AQ  24227.99066440  .00028044  00000-0  17723-2 0  9992,2 53856  53.2169 330.6570 0001121  82.7577 277.3543 15.08857129106262,6917.828,95.436,540.469,538.918,0.0
53856.0,STARLINK-4795,PAYLOAD,2024-08-15 23:37:20,15.0885342,0.000273,53.218,326.1946,85.3819,274.7485,0.00074201,0.00011545,0.0,0 STARLINK-4795,1 53856U 22114AQ  24228.98426787  .00011545  00000-0  74201-3 0  9999,2 53856  53.2180 326.1946 0002730  85.3819 274.7485 15.08853420106410,6917.839,95.437,541.593,537.816,0.0
53856.0,STARLINK-4795,PAYLOAD,2024-08-17 05:49:40,15.0884531,0.0001655,53.2165,320.5472,95.9696,264.1485,0.00054916,8.464e-05,0.0,0 STARLINK-4795,1 53856U 22114AQ  24230.24282617  .00008464  00000-0  54916-3 0  9990,2 53856  53.2165 320.5472 0001655  95.9696 264.1485 15.08845310106603,6917.864,95.437,540.874,538.584,0.0
53856.0,STARLINK-4795,PAYLOAD,2024-08-18 12:01:59,15.08846537,0.0001821,53.218,314.8953,86.1609,273.9592,0.00032174,4.837e-05,0.0,0 STARLINK-4795,1 53856U 22114AQ  24231.50138848  .00004837  00000-0  32174-3 0  9998,2 53856  53.2180 314.8953 0001821  86.1609 273.9592 15.08846537106790,6917.86,95.437,540.985,538.466,0.0
